[{"OBJECT_NAME":"THORAD AGENA D DEB","OBJECT_ID":"1970-025CJ","EPOCH":"2026-03-05T05:59:56.525856","MEAN_MOTION":16.05906055,"ECCENTRICITY":0.0011376,"INCLINATION":99.5846,"RA_OF_ASC_NODE":76.8615,"ARG_OF_PERICENTER":181.1558,"MEAN_ANOMALY":178.9691,"EPHEMERIS_TYPE":0,"CLASSIFICATION_TYPE":"U","NORAD_CAT_ID":4735,"ELEMENT_SET_NO":999,"REV_AT_EPOCH":88062,"BSTAR":0.014291,"MEAN_MOTION_DOT":0.06791631,"MEAN_MOTION_DDOT":0.13744},{"OBJECT_NAME":"COSMOS 886 DEB","OBJECT_ID":"1976-126BN","EPOCH":"2026-03-05T10:21:52.276320","MEAN_MOTION":16.19434659,"ECCENTRICITY":0.0017078,"INCLINATION":65.5928,"RA_OF_ASC_NODE":307.6976,"ARG_OF_PERICENTER":206.5599,"MEAN_ANOMALY":153.4711,"EPHEMERIS_TYPE":0,"CLASSIFICATION_TYPE":"U","NORAD_CAT_ID":14501,"ELEMENT_SET_NO":999,"REV_AT_EPOCH":14999,"BSTAR":0.0047049,"MEAN_MOTION_DOT":0.08967905,"MEAN_MOTION_DDOT":6.7923e-6},{"OBJECT_NAME":"COSMOS 1812","OBJECT_ID":"1987-003A","EPOCH":"2026-03-05T21:17:53.851776","MEAN_MOTION":16.42967947,"ECCENTRICITY":0.001071,"INCLINATION":82.4638,"RA_OF_ASC_NODE":199.8837,"ARG_OF_PERICENTER":275.6163,"MEAN_ANOMALY":84.3916,"EPHEMERIS_TYPE":0,"CLASSIFICATION_TYPE":"U","NORAD_CAT_ID":17295,"ELEMENT_SET_NO":999,"REV_AT_EPOCH":14387,"BSTAR":0.00027855,"MEAN_MOTION_DOT":0.07088221,"MEAN_MOTION_DDOT":-1.2681e-6},{"OBJECT_NAME":"CZ-4 DEB","OBJECT_ID":"1990-081BJ","EPOCH":"2026-03-05T17:31:02.527104","MEAN_MOTION":16.00888233,"ECCENTRICITY":0.0013581,"INCLINATION":98.0793,"RA_OF_ASC_NODE":154.4048,"ARG_OF_PERICENTER":291.9902,"MEAN_ANOMALY":67.9931,"EPHEMERIS_TYPE":0,"CLASSIFICATION_TYPE":"U","NORAD_CAT_ID":20898,"ELEMENT_SET_NO":999,"REV_AT_EPOCH":86752,"BSTAR":0.0085011,"MEAN_MOTION_DOT":0.03714059,"MEAN_MOTION_DDOT":0.020176},{"OBJECT_NAME":"IRIDIUM 51","OBJECT_ID":"1998-018A","EPOCH":"2026-03-05T21:06:27.682848","MEAN_MOTION":16.02662524,"ECCENTRICITY":0.0016753,"INCLINATION":86.3504,"RA_OF_ASC_NODE":282.5904,"ARG_OF_PERICENTER":296.3322,"MEAN_ANOMALY":63.6244,"EPHEMERIS_TYPE":0,"CLASSIFICATION_TYPE":"U","NORAD_CAT_ID":25262,"ELEMENT_SET_NO":999,"REV_AT_EPOCH":48774,"BSTAR":0.0013215,"MEAN_MOTION_DOT":0.00789266,"MEAN_MOTION_DDOT":0.00030113},{"OBJECT_NAME":"CZ-2D DEB","OBJECT_ID":"2005-024J","EPOCH":"2026-03-01T21:43:49.210752","MEAN_MOTION":15.92111318,"ECCENTRICITY":0.0004089,"INCLINATION":97.1482,"RA_OF_ASC_NODE":103.0739,"ARG_OF_PERICENTER":145.2826,"MEAN_ANOMALY":214.8716,"EPHEMERIS_TYPE":0,"CLASSIFICATION_TYPE":"U","NORAD_CAT_ID":31409,"ELEMENT_SET_NO":999,"REV_AT_EPOCH":11718,"BSTAR":0.00072484,"MEAN_MOTION_DOT":0.0023946,"MEAN_MOTION_DDOT":2.3346e-5},{"OBJECT_NAME":"ZIYUAN 3-01 (ZY 3-01)","OBJECT_ID":"2012-001A","EPOCH":"2026-03-05T21:00:41.305248","MEAN_MOTION":15.995584,"ECCENTRICITY":0.0002403,"INCLINATION":97.1557,"RA_OF_ASC_NODE":139.5648,"ARG_OF_PERICENTER":248.1647,"MEAN_ANOMALY":111.9376,"EPHEMERIS_TYPE":0,"CLASSIFICATION_TYPE":"U","NORAD_CAT_ID":38046,"ELEMENT_SET_NO":999,"REV_AT_EPOCH":78809,"BSTAR":0.00090965,"MEAN_MOTION_DOT":0.00448641,"MEAN_MOTION_DDOT":8.794e-5},{"OBJECT_NAME":"HUMSAT-D","OBJECT_ID":"2013-066T","EPOCH":"2026-03-05T19:29:54.188736","MEAN_MOTION":16.05508159,"ECCENTRICITY":0.0007411,"INCLINATION":97.4819,"RA_OF_ASC_NODE":77.6381,"ARG_OF_PERICENTER":171.8726,"MEAN_ANOMALY":188.2676,"EPHEMERIS_TYPE":0,"CLASSIFICATION_TYPE":"U","NORAD_CAT_ID":39433,"ELEMENT_SET_NO":999,"REV_AT_EPOCH":67084,"BSTAR":0.0020702,"MEAN_MOTION_DOT":0.0142464,"MEAN_MOTION_DDOT":0.0012628},{"OBJECT_NAME":"H-2A DEB","OBJECT_ID":"2018-084E","EPOCH":"2026-03-05T20:42:30.653856","MEAN_MOTION":16.06441035,"ECCENTRICITY":0.000374,"INCLINATION":98.0018,"RA_OF_ASC_NODE":281.1538,"ARG_OF_PERICENTER":291.8669,"MEAN_ANOMALY":68.2213,"EPHEMERIS_TYPE":0,"CLASSIFICATION_TYPE":"U","NORAD_CAT_ID":43675,"ELEMENT_SET_NO":999,"REV_AT_EPOCH":40251,"BSTAR":0.002813,"MEAN_MOTION_DOT":0.01984272,"MEAN_MOTION_DDOT":0.0031146},{"OBJECT_NAME":"SPACEBEE-7","OBJECT_ID":"2018-099BL","EPOCH":"2026-03-05T17:50:38.580576","MEAN_MOTION":16.1346116,"ECCENTRICITY":0.0008692,"INCLINATION":97.4346,"RA_OF_ASC_NODE":151.4489,"ARG_OF_PERICENTER":276.2587,"MEAN_ANOMALY":83.7708,"EPHEMERIS_TYPE":0,"CLASSIFICATION_TYPE":"U","NORAD_CAT_ID":43816,"ELEMENT_SET_NO":999,"REV_AT_EPOCH":39858,"BSTAR":0.0019709,"MEAN_MOTION_DOT":0.02126202,"MEAN_MOTION_DDOT":0.0048526},{"OBJECT_NAME":"STARLINK-1112","OBJECT_ID":"2020-001M","EPOCH":"2026-03-05T21:03:58.128768","MEAN_MOTION":16.09411556,"ECCENTRICITY":0.000513,"INCLINATION":53.0323,"RA_OF_ASC_NODE":260.7732,"ARG_OF_PERICENTER":281.8918,"MEAN_ANOMALY":78.154,"EPHEMERIS_TYPE":0,"CLASSIFICATION_TYPE":"U","NORAD_CAT_ID":44925,"ELEMENT_SET_NO":999,"REV_AT_EPOCH":34071,"BSTAR":0.001043,"MEAN_MOTION_DOT":0.00965148,"MEAN_MOTION_DDOT":0.00054382},{"OBJECT_NAME":"STARLINK-1298","OBJECT_ID":"2020-019BF","EPOCH":"2026-03-05T22:00:01.999584","MEAN_MOTION":15.93892013,"ECCENTRICITY":0.0006888,"INCLINATION":53.0346,"RA_OF_ASC_NODE":73.2351,"ARG_OF_PERICENTER":7.7435,"MEAN_ANOMALY":356.4967,"EPHEMERIS_TYPE":0,"CLASSIFICATION_TYPE":"U","NORAD_CAT_ID":45413,"ELEMENT_SET_NO":999,"REV_AT_EPOCH":600,"BSTAR":0.00081279,"MEAN_MOTION_DOT":0.00302477,"MEAN_MOTION_DDOT":4.6457e-5},{"OBJECT_NAME":"STARLINK-1398","OBJECT_ID":"2020-035AU","EPOCH":"2026-03-05T22:00:01.999584","MEAN_MOTION":15.92659205,"ECCENTRICITY":0.0003846,"INCLINATION":53.0364,"RA_OF_ASC_NODE":318.5285,"ARG_OF_PERICENTER":156.0121,"MEAN_ANOMALY":54.3189,"EPHEMERIS_TYPE":0,"CLASSIFICATION_TYPE":"U","NORAD_CAT_ID":45699,"ELEMENT_SET_NO":999,"REV_AT_EPOCH":599,"BSTAR":0.00072518,"MEAN_MOTION_DOT":0.00251926,"MEAN_MOTION_DDOT":3.5098e-5},{"OBJECT_NAME":"STARLINK-1484","OBJECT_ID":"2020-038AC","EPOCH":"2026-03-05T22:00:01.999584","MEAN_MOTION":15.99582604,"ECCENTRICITY":0.0006502,"INCLINATION":52.9982,"RA_OF_ASC_NODE":76.1184,"ARG_OF_PERICENTER":49.0266,"MEAN_ANOMALY":42.6988,"EPHEMERIS_TYPE":0,"CLASSIFICATION_TYPE":"U","NORAD_CAT_ID":45756,"ELEMENT_SET_NO":999,"REV_AT_EPOCH":595,"BSTAR":0.00099615,"MEAN_MOTION_DOT":0.00508835,"MEAN_MOTION_DDOT":0.0001231},{"OBJECT_NAME":"STARLINK-1587","OBJECT_ID":"2020-057AS","EPOCH":"2026-03-05T20:00:00.999360","MEAN_MOTION":15.92840326,"ECCENTRICITY":0.0003684,"INCLINATION":53.0321,"RA_OF_ASC_NODE":236.0821,"ARG_OF_PERICENTER":273.5446,"MEAN_ANOMALY":288.3423,"EPHEMERIS_TYPE":0,"CLASSIFICATION_TYPE":"U","NORAD_CAT_ID":46157,"ELEMENT_SET_NO":999,"REV_AT_EPOCH":603,"BSTAR":0.0012978,"MEAN_MOTION_DOT":0.00457588,"MEAN_MOTION_DDOT":9.2828e-5},{"OBJECT_NAME":"STARLINK-1723","OBJECT_ID":"2020-062J","EPOCH":"2026-03-05T23:34:32.701152","MEAN_MOTION":16.42829838,"ECCENTRICITY":0.000559,"INCLINATION":53.031,"RA_OF_ASC_NODE":340.6573,"ARG_OF_PERICENTER":232.5439,"MEAN_ANOMALY":127.5101,"EPHEMERIS_TYPE":0,"CLASSIFICATION_TYPE":"U","NORAD_CAT_ID":46333,"ELEMENT_SET_NO":999,"REV_AT_EPOCH":30448,"BSTAR":0.00055573,"MEAN_MOTION_DOT":0.11546273,"MEAN_MOTION_DDOT":1.2383e-5}]
