THORAD AGENA D DEB      
1 04735U 70025CJ  26064.24995979  .06791631  13744+0  14291-1 0  9994
2 04735  99.5846  76.8615 0011376 181.1558 178.9691 16.05906055880624
COSMOS 886 DEB          
1 14501U 76126BN  26064.43185505  .08967905  67923-5  47049-2 0  9994
2 14501  65.5928 307.6976 0017078 206.5599 153.4711 16.19434659149997
COSMOS 1812             
1 17295U 87003A   26064.88742884  .07088221 -12681-5  27855-3 0  9991
2 17295  82.4638 199.8837 0010710 275.6163  84.3916 16.42967947143870
CZ-4 DEB                
1 20898U 90081BJ  26064.72989036  .03714059  20176-1  85011-2 0  9990
2 20898  98.0793 154.4048 0013581 291.9902  67.9931 16.00888233867523
IRIDIUM 51              
1 25262U 98018A   26064.87948707  .00789266  30113-3  13215-2 0  9994
2 25262  86.3504 282.5904 0016753 296.3322  63.6244 16.02662524487743
CZ-2D DEB               
1 31409U 05024J   26060.90543068  .00239460  23346-4  72484-3 0  9991
2 31409  97.1482 103.0739 0004089 145.2826 214.8716 15.92111318117181
ZIYUAN 3-01 (ZY 3-01)   
1 38046U 12001A   26064.87547807  .00448641  87940-4  90965-3 0  9990
2 38046  97.1557 139.5648 0002403 248.1647 111.9376 15.99558400788090
HUMSAT-D                
1 39433U 13066T   26064.81243274  .01424640  12628-2  20702-2 0  9992
2 39433  97.4819  77.6381 0007411 171.8726 188.2676 16.05508159670842
H-2A DEB                
1 43675U 18084E   26064.86285479  .01984272  31146-2  28130-2 0  9999
2 43675  98.0018 281.1538 0003740 291.8669  68.2213 16.06441035402510
SPACEBEE-7              
1 43816U 18099BL  26064.74350209  .02126202  48526-2  19709-2 0  9997
2 43816  97.4346 151.4489 0008692 276.2587  83.7708 16.13461160398586
STARLINK-1112           
1 44925U 20001M   26064.87775612  .00965148  54382-3  10430-2 0  9996
2 44925  53.0323 260.7732 0005130 281.8918  78.1540 16.09411556340713
STARLINK-1298           
1 45413U 20019BF  26064.91668981  .00302477  46457-4  81279-3 0  9998
2 45413  53.0346  73.2351 0006888   7.7435 356.4967 15.93892013  6004
STARLINK-1398           
1 45699U 20035AU  26064.91668981  .00251926  35098-4  72518-3 0  9999
2 45699  53.0364 318.5285 0003846 156.0121  54.3189 15.92659205  5992
STARLINK-1484           
1 45756U 20038AC  26064.91668981  .00508835  12310-3  99615-3 0  9998
2 45756  52.9982  76.1184 0006502  49.0266  42.6988 15.99582604  5956
STARLINK-1587           
1 46157U 20057AS  26064.83334490  .00457588  92828-4  12978-2 0  9998
2 46157  53.0321 236.0821 0003684 273.5446 288.3423 15.92840326  6032
STARLINK-1723           
1 46333U 20062J   26064.98232293  .11546273  12383-4  55573-3 0  9993
2 46333  53.0310 340.6573 0005590 232.5439 127.5101 16.42829838304485
